BEIDOU-3 IGSO-1         
1 44204U 19023A   26169.60920451 -.00000224  00000+0  00000+0 0  9997
2 44204  58.6970  37.6341 0025544 225.7171 340.8879  1.00291017  7221
TIANHUI 2-01A           
1 44207U 19024A   26168.62137894  .00001381  00000+0  73809-4 0  9999
2 44207  97.4799 172.5519 0001583  98.1553 261.9860 15.16751336102207
TIANHUI 2-01B           
1 44209U 19024C   26168.62138009  .00001382  00000+0  73832-4 0  9997
2 44209  97.4799 172.5490 0002071  88.0377 272.1093 15.16751280394777
BEIDOU-2 G8             
1 44231U 19027A   26169.78089721 -.00000254  00000+0  00000+0 0  9999
2 44231   1.6627  74.4969 0010158 281.9140 336.2634  1.00270275 26095
RISAT-2B                
1 44233U 19028A   26169.88068135  .00002805  00000+0  21793-3 0  9998
2 44233  36.9982 344.0487 0004137  39.3383 320.7660 15.01662941388085
COSMOS 2534 [GLONASS-M] 
1 44299U 19030A   26167.15041896  .00000077  00000+0  00000+0 0  9999
2 44299  64.3685 192.6516 0013389 275.0852 148.6554  2.13102184 54908
YAMAL 601               
1 44307U 19031A   26169.54817332  .00000114  00000+0  00000+0 0  9993
2 44307   0.0263  73.0889 0002406  16.7504  63.2879  1.00271870 25942
BUFENG 1A               
1 44310U 19032A   26169.84478905  .00007126  00000+0  26364-3 0  9995
2 44310  44.9736  47.7294 0010370 260.4869  99.4842 15.28319528387442
BUFENG 1B               
1 44311U 19032B   26169.85313984  .00008280  00000+0  30718-3 0  9992
2 44311  44.9749   0.9458 0026064 334.3498  25.6091 15.27783628388001
JILIN-1 GAOFEN 3A       
1 44312U 19032C   26169.84495955  .00009240  00000+0  29656-3 0  9997
2 44312  44.9756 347.8128 0006387 303.8690  56.1586 15.32658514388096
TIANQI-3                
1 44314U 19032E   26169.85867512  .00013399  00000+0  35087-3 0  9997
2 44314  45.0015 330.4337 0008737 323.7616  36.2678 15.38693207388330
WT 1B                   
1 44316U 19032G   26169.83477184  .00006740  00000+0  25849-3 0  9996
2 44316  44.9722  51.9454 0009982 256.9646 103.0122 15.27205902387338
RCM-1                   
1 44322U 19033A   26169.74353594 -.00000046  00000+0  92343-6 0  9992
2 44322  97.7612 177.1665 0001473  88.9749 271.1639 14.92588487382314
RCM-3                   
1 44323U 19033B   26169.90022490  .00000160  00000+0  20972-4 0  9992
2 44323  97.7598 177.4156 0001497  90.6841 269.4550 14.92586571382353
RCM-2                   
1 44324U 19033C   26169.45315634 -.00000055  00000+0  84811-7 0  9997
2 44324  97.7613 176.9250 0001438  90.3133 269.8251 14.92588541382279
AT&T T-16               
1 44333U 19034A   26169.66105103 -.00000122  00000+0  00000+0 0  9994
2 44333   0.0219  64.4976 0000794 240.6044  98.9118  1.00271481 25644
EUTELSAT 7C             
1 44334U 19034B   26169.53985329  .00000042  00000+0  00000+0 0  9997
2 44334   0.0727 176.5526 0003167 248.7431  42.8364  1.00271203  6845
BEIDOU-3 IGSO-2         
1 44337U 19035A   26169.88675894 -.00000097  00000+0  00000+0 0  9993
2 44337  55.2463 158.8478 0039664 216.5160 330.6306  1.00265889 25689
PROX-1                  
1 44339U 19036A   26168.92751771  .00010882  00000+0  10554-2 0  9999
2 44339  23.9948 109.3054 0005742  44.3809 315.7150 14.90623480373583
NPSAT1                  
1 44340U 19036B   26169.80919240  .00003532  00000+0  48207-3 0  9997
2 44340  23.9979 207.1975 0007071 225.8728 134.1187 14.74588590372734
OTB                     
1 44341U 19036C   26169.76234567  .00001038  00000+0  17811-3 0  9991
2 44341  23.9972 330.3430 0010992  22.4917 337.6055 14.57213183371603
FORMOSAT 7-3            
1 44343U 19036E   26169.37338797  .00003016  00000+0  16102-3 0  9990
2 44343  23.9974 170.3761 0000316 298.1513  61.8958 15.09805082383423
DSX                     
1 44344U 19036F   26165.33508382 -.00000044  00000+0  00000+0 0  9997
2 44344  42.3307 351.7308 1967292  14.6377 350.3681  4.54374393115668
FORMOSAT 7-1            
1 44349U 19036L   26168.91373732  .00002274  00000+0  16935-3 0  9992
2 44349  23.9987  27.4949 0000746 163.4061 196.6465 14.96508462384767
FORMOSAT 7-4            
1 44350U 19036M   26169.86970052  .00002081  00000+0  15278-3 0  9992
2 44350  23.9980  83.1546 0001041 199.7462 160.2999 14.96503379384323
FORMOSAT 7-2            
1 44351U 19036N   26169.02523322  .00002008  00000+0  14649-3 0  9995
2 44351  23.9964 143.1646 0000662 170.5801 189.4713 14.96501020383716
FORMOSAT 7-6            
1 44353U 19036Q   26169.75843904  .00002255  00000+0  16763-3 0  9991
2 44353  23.9990 319.0385 0001398 106.6528 253.4127 14.96517563382050
FORMOSAT 7-5            
1 44358U 19036V   26169.53565557  .00002045  00000+0  14961-3 0  9992
2 44358  23.9984 259.2921 0000483 124.9382 235.1164 14.96522726382554
METEOR-M2 2             
1 44387U 19038A   26169.86033359  .00000042  00000+0  38117-4 0  9997
2 44387  98.9145 157.1706 0002012  45.4805 314.6537 14.24366548361532
ICEYE-X4                
1 44390U 19038D   26169.83366738  .00009286  00000+0  32870-3 0  9996
2 44390  97.8755 202.8426 0011465 300.7220  59.2888 15.29324561382054
MOMENTUS-X1             
1 44408U 19038Y   26169.39022970  .00035248  00000+0  33558-3 0  9995
2 44408  97.6742 214.8847 0006513  21.0075 339.1451 15.66728194386744
