OBJECT_NAME,OBJECT_ID,EPOCH,MEAN_MOTION,ECCENTRICITY,INCLINATION,RA_OF_ASC_NODE,ARG_OF_PERICENTER,MEAN_ANOMALY,EPHEMERIS_TYPE,CLASSIFICATION_TYPE,NORAD_CAT_ID,ELEMENT_SET_NO,REV_AT_EPOCH,BSTAR,MEAN_MOTION_DOT,MEAN_MOTION_DDOT
BEIDOU-3 IGSO-1,2019-023A,2026-06-18T14:37:15.269664,1.00291017,.0025544,58.6970,37.6341,225.7171,340.8879,0,U,44204,999,722,0,-.224E-5,0
TIANHUI 2-01A,2019-024A,2026-06-17T14:54:47.140416,15.16751336,.00015832,97.4799,172.5519,98.1553,261.9860,0,U,44207,999,10220,.73809284E-4,.1381E-4,0
TIANHUI 2-01B,2019-024C,2026-06-17T14:54:47.239776,15.16751280,.00020718,97.4799,172.5490,88.0377,272.1093,0,U,44209,999,39477,.73831911E-4,.1382E-4,0
BEIDOU-2 G8,2019-027A,2026-06-18T18:44:29.518944,1.00270275,.0010158,1.6627,74.4969,281.9140,336.2634,0,U,44231,999,2609,0,-.254E-5,0
RISAT-2B,2019-028A,2026-06-18T21:08:10.868640,15.01662941,.0004137,36.9982,344.0487,39.3383,320.7660,0,U,44233,999,38808,.21793E-3,.2805E-4,0
COSMOS 2534 [GLONASS-M],2019-030A,2026-06-16T03:36:36.198144,2.13102184,.00133893,64.3685,192.6516,275.0852,148.6554,0,U,44299,999,5490,0,.77E-6,0
YAMAL 601,2019-031A,2026-06-18T13:09:22.174848,1.00271870,.0002406,0.0263,73.0889,16.7504,63.2879,0,U,44307,999,2594,0,.114E-5,0
BUFENG 1A,2019-032A,2026-06-18T20:16:29.773920,15.28319528,.001037,44.9736,47.7294,260.4869,99.4842,0,U,44310,999,38744,.26364E-3,.7126E-4,0
BUFENG 1B,2019-032B,2026-06-18T20:28:31.282176,15.27783628,.0026064,44.9749,0.9458,334.3498,25.6091,0,U,44311,999,38800,.30718E-3,.828E-4,0
JILIN-1 GAOFEN 3A,2019-032C,2026-06-18T20:16:44.505120,15.32658514,.0006387,44.9756,347.8128,303.8690,56.1586,0,U,44312,999,38809,.29656E-3,.924E-4,0
TIANQI-3,2019-032E,2026-06-18T20:36:29.530368,15.38693207,.0008737,45.0015,330.4337,323.7616,36.2678,0,U,44314,999,38833,.35087E-3,.13399E-3,0
WT 1B,2019-032G,2026-06-18T20:02:04.286976,15.27205902,.0009982,44.9722,51.9454,256.9646,103.0122,0,U,44316,999,38733,.25849E-3,.674E-4,0
RCM-1,2019-033A,2026-06-18T17:50:41.505216,14.92588487,.0001473,97.7612,177.1665,88.9749,271.1639,0,U,44322,999,38231,.92343E-6,-.46E-6,0
RCM-3,2019-033B,2026-06-18T21:36:19.431360,14.92586571,.0001497,97.7598,177.4156,90.6841,269.4550,0,U,44323,999,38235,.20972E-4,.16E-5,0
RCM-2,2019-033C,2026-06-18T10:52:32.707776,14.92588541,.0001438,97.7613,176.9250,90.3133,269.8251,0,U,44324,999,38227,.84811E-7,-.55E-6,0
AT&T T-16,2019-034A,2026-06-18T15:51:54.808992,1.00271481,.0000794,0.0219,64.4976,240.6044,98.9118,0,U,44333,999,2564,0,-.122E-5,0
EUTELSAT 7C,2019-034B,2026-06-18T12:57:23.324256,1.00271203,.0003167,0.0727,176.5526,248.7431,42.8364,0,U,44334,999,684,0,.42E-6,0
BEIDOU-3 IGSO-2,2019-035A,2026-06-18T21:16:55.972416,1.00265889,.0039664,55.2463,158.8478,216.5160,330.6306,0,U,44337,999,2568,0,-.97E-6,0
PROX-1,2019-036A,2026-06-17T22:15:37.530144,14.90623480,.00057424,23.9948,109.3054,44.3809,315.7150,0,U,44339,999,37358,.10553694E-2,.10882E-3,0
NPSAT1,2019-036B,2026-06-18T19:25:14.223360,14.74588590,.0007071,23.9979,207.1975,225.8728,134.1187,0,U,44340,999,37273,.48207E-3,.3532E-4,0
OTB,2019-036C,2026-06-18T18:17:46.665888,14.57213183,.0010992,23.9972,330.3430,22.4917,337.6055,0,U,44341,999,37160,.17811E-3,.1038E-4,0
FORMOSAT 7-3,2019-036E,2026-06-18T08:57:40.720608,15.09805082,.0000316,23.9974,170.3761,298.1513,61.8958,0,U,44343,999,38342,.16102E-3,.3016E-4,0
DSX,2019-036F,2026-06-14T08:02:31.242048,4.54374393,.19672925,42.3307,351.7308,14.6377,350.3681,0,U,44344,999,11566,0,-.44E-6,0
FORMOSAT 7-1,2019-036L,2026-06-17T21:55:46.904448,14.96508462,.00007465,23.9987,27.4949,163.4061,196.6465,0,U,44349,999,38476,.16935154E-3,.2274E-4,0
FORMOSAT 7-4,2019-036M,2026-06-18T20:52:22.124928,14.96503379,.0001041,23.9980,83.1546,199.7462,160.2999,0,U,44350,999,38432,.15278E-3,.2081E-4,0
FORMOSAT 7-2,2019-036N,2026-06-18T00:36:20.150208,14.96501020,.00006628,23.9964,143.1646,170.5801,189.4713,0,U,44351,999,38371,.14648673E-3,.2008E-4,0
FORMOSAT 7-6,2019-036Q,2026-06-18T18:12:09.133056,14.96517563,.0001398,23.9990,319.0385,106.6528,253.4127,0,U,44353,999,38205,.16763E-3,.2255E-4,0
FORMOSAT 7-5,2019-036V,2026-06-18T12:51:20.641248,14.96522726,.0000483,23.9984,259.2921,124.9382,235.1164,0,U,44358,999,38255,.14961E-3,.2045E-4,0
METEOR-M2 2,2019-038A,2026-06-18T20:38:52.822176,14.24366548,.0002012,98.9145,157.1706,45.4805,314.6537,0,U,44387,999,36153,.38117E-4,.42E-6,0
ICEYE-X4,2019-038D,2026-06-18T20:00:28.861632,15.29324561,.0011465,97.8755,202.8426,300.7220,59.2888,0,U,44390,999,38205,.3287E-3,.9286E-4,0
MOMENTUS-X1,2019-038Y,2026-06-18T09:21:55.846080,15.66728194,.0006513,97.6742,214.8847,21.0075,339.1451,0,U,44408,999,38674,.33558E-3,.35248E-3,0
